KAZSTSAT                
1 43783U 18099AB  26068.61895971  .00001354  00000+0  11446-3 0  9991
2 43783  97.4396 105.0128 0006528  11.1145 349.0222 14.99620503396386
ION SCV-021             
1 67483U 25276DT  26068.74606001  .00002399  00000+0  21145-3 0  9994
2 67483  97.5322 142.8125 0013138  96.8695 263.4023 14.97286526  7726
